0 DODECAPOLE 2
1  1510U 65065C   20196.30542925 +.00000620 +00000-0 +45154-3 0  9997
2  1510 090.0315 014.6070 0040914 154.7329 205.5861 13.94814615730317
0 THOR ABLESTAR DEB
1  1511U 65065D   20196.36569280 +.00000018 +00000-0 +16757-4 0  9996
2  1511 089.8759 224.4364 0069236 167.6350 203.7307 13.33985401672188
0 TEMPSAT 1
1  1512U 65065E   20196.43375214 +.00000013 +00000-0 +72632-5 0  9997
2  1512 089.8736 225.7896 0068989 203.0156 224.9999 13.33427682671689
0 OPS 8464 (TRANSIT 5B-7)
1  1514U 65065F   20196.38966221 +.00000035 +00000-0 +48394-4 0  9998
2  1514 089.8570 243.7034 0071916 133.0639 238.5063 13.34966793672667
0 NAVSPASUR ROD 1
1  1515U 65065G   20196.34920242  .00000123  00000-0  17909-3 0  9993
2  1515  89.9041 222.2543 0061206  78.0840  50.8750 13.48773467688903
0 CALSPHERE 4(A)
1  1520U 65065H   20196.54354508 +.00000052 +00000-0 +82090-4 0  9992
2  1520 090.0349 129.2195 0072415 085.3684 002.4671 13.35817646673816
0 THOR ABLESTAR DEB
1  1521U 65065K   20196.54339287 +.00000019 +00000-0 +21017-4 0  9995
2  1521 089.9067 217.7305 0068432 214.2242 300.9692 13.33156912671114
0 THOR ABLESTAR DEB
1  1522U 65065L   20196.49514079 +.00000010 +00000-0 +28959-5 0  9998
2  1522 090.1741 099.2178 0069854 204.5985 328.9826 13.33640500671383
0 DELTA 1 DEB
1  1529U 65051D   20196.13263136 +.00000002 +00000-0 +21702-4 0  9995
2  1529 099.0140 339.1601 0035809 309.1369 050.6627 14.22933823847698
0 SL-8 DEB
1  1549U 65020CV  20196.43298643 -.00000139  00000-0 -49473-4 0  9995
2  1549  56.1673 217.9969 0852292 355.7764   3.6270 12.62687319541943
0 COSMOS 80
1  1570U 65070A   20196.35557178 -.00000088 +00000-0 +51335-4 0  9998
2  1570 056.0534 221.4026 0100357 268.4703 103.3082 12.52764374510195
0 COSMOS 81
1  1571U 65070B   20196.52094052 -.00000099 +00000-0 -22864-4 0  9993
2  1571 056.0593 267.9501 0090126 059.5529 314.0032 12.48833316502332
0 COSMOS 82
1  1572U 65070C   20196.52524917 -.00000089 +00000-0 +34060-4 0  9991
2  1572 056.0596 283.3645 0074090 249.0473 122.9517 12.45091097494842
0 COSMOS 83
1  1573U 65070D   20196.45886667 -.00000096 +00000-0 -17378-4 0  9999
2  1573 056.0556 326.1251 0070285 084.7867 276.1051 12.41014289486818
0 COSMOS 84
1  1574U 65070E   20196.44322024 -.00000080 +00000-0 +88570-4 0  9995
2  1574 056.0554 005.9538 0062084 265.0384 116.4565 12.37006471478695
0 SL-8 R/B
1  1575U 65070F   20196.57151703 -.00000109 +00000-0 -63742-4 0  9991
2  1575 056.1233 257.3969 0098344 034.6683 109.2652 12.56968370518713
0 VANGUARD DEB
1  1576U 58002C   20196.47795390 +.00000503 +00000-0 +50471-3 0  9994
2  1576 034.2245 355.5720 1435759 131.7752 241.4795 11.69902172547598
0 PORCUPINE 2
1  1577U 65065J   20196.35922032 +.00000031 +00000-0 +40349-4 0  9994
2  1577 089.9142 217.9136 0072088 086.5663 288.1813 13.35785348673748
0 OPS 8068
1  1580U 65072A   20196.30739190 -.00000011 +00000-0 +11997-4 0  9998
2  1580 098.3949 050.6059 0233817 316.5516 041.7445 14.27574850824174
0 THOR ALTAIR R/B
1  1583U 65072D   20196.38894326 +.00000051 +00000-0 +20202-4 0  9994
2  1583 098.4454 353.4110 0161478 086.7728 275.1929 14.56183114851345
0 COSMOS 86
1  1584U 65073A   20196.49222255 -.00000083 +00000-0 +71637-4 0  9998
2  1584 056.0573 244.5597 0211104 233.9480 267.3941 12.51876404506494
0 COSMOS 87
1  1585U 65073B   20196.18672001 -.00000096 +00000-0 -64399-5 0  9996
2  1585 056.0631 339.6335 0202366 003.6210 168.6319 12.47427146495904
0 COSMOS 88
1  1586U 65073C   20196.30395332 -.00000091 +00000-0 +19182-4 0  9993
2  1586 056.0617 032.9670 0188220 165.9351 005.4057 12.43314560489501
0 COSMOS 89
1  1587U 65073D   20196.50176756 -.00000108 +00000-0 -11218-3 0  9994
2  1587 056.0579 107.7987 0169024 331.0926 028.0693 12.38958727480800
0 COSMOS 90
1  1588U 65073E   20196.47797730 -.00000072  00000-0  15262-3 0  9994
2  1588  56.0531 187.0458 0160257 122.5767  49.6672 12.34563575472444
0 SL-8 R/B
1  1589U 65073F   20196.49942414 -.00000110 +00000-0 -14639-3 0  9999
2  1589 056.0529 332.1646 0164274 069.0689 018.7552 12.33022363468831
0 SL-8 DEB
1  1590U 65073G   20196.32920581  .00000025  00000-0  75595-3 0  9995
2  1590  56.0836 165.5095 0178751  10.1752 138.5147 12.48833062488322
0 SL-8 DEB
1  1591U 65073H   20196.30199093  .00000092  00000-0  12866-2 0  9995
2  1591  56.0572 150.0786 0161701 329.8661 180.5396 12.42247075480212
0 THOR ABLESTAR DEB
1  1608U 64083H   20196.25777963 +.00000161 +00000-0 +14014-3 0  9991
2  1608 089.7962 120.2632 0017299 215.6803 297.2785 13.81798391775769
0 OV1-2
1  1613U 65078A   20196.30754264 +.00000712 +00000-0 +30040-4 0  9997
2  1613 144.2398 011.4390 1225185 102.6878 271.3210 12.78918651435790
0 ATLAS D R/B
1  1616U 65078B   20196.49824756 +.00000934 +00000-0 +54838-4 0  9991
2  1616 144.2290 130.3663 1095222 295.7071 053.4613 13.08317506464877
0 SL-8 DEB
1  1617U 65073J   20195.82493049 -.00001001 +00000-0 -67578-2 0  9991
2  1617 056.1304 331.2702 0224394 020.9400 131.1334 12.33939537463210
0 SL-8 DEB
1  1618U 65073K   20196.46529523 -.00000031 +00000-0 +46535-3 0  9992
2  1618 056.1803 000.7294 0226255 016.9485 013.0558 12.29835270456880
0 SL-8 DEB
1  1634U 65020ED  20196.44263319 -.00000071  00000-0  56636-4 0  9996
2  1634  56.1540 188.6266 0841900  53.1588 314.3571 12.47396968492853
0 OV2-1
1  1641U 65082C   20196.43442198 +.00000061 +00000-0 +69637-5 0  9999
2  1641 032.2953 223.3972 0018959 121.1735 239.0771 14.53242786902291
0 TITAN 3C TRANSTAGE DEB
1  1642U 65082D   20196.30887457 +.00000082 +00000-0 +49598-5 0  9994
2  1642 032.0955 054.7519 0025528 355.3254 004.7154 14.79177867916542
0 TITAN 3C TRANSTAGE DEB
1  1646U 65082H   20195.89669066 +.00000089 +00000-0 +83511-5 0  9995
2  1646 032.3124 043.9473 0003155 277.9173 082.1120 14.71901507900710
0 TITAN 3C TRANSTAGE DEB
1  1653U 65082Q   20196.53627875 +.00000063 +00000-0 +45136-5 0  9990
2  1653 032.1211 016.5937 0042467 303.4103 056.2484 14.62219476894412
0 TITAN 3C TRANSTAGE DEB
1  1668U 65082AF  20196.53263139 +.00000121 +00000-0 +11436-4 0  9995
2  1668 032.0706 327.2047 0016161 121.4148 238.8081 14.74386069898207
0 TITAN 3C TRANSTAGE DEB
1  1671U 65082AJ  20196.25015764 +.00000074 +00000-0 +94276-5 0  9998
2  1671 032.1626 046.7829 0053965 108.5131 252.1385 14.51574481871686
0 TITAN 3C TRANSTAGE DEB
1  1672U 65082AK  20196.37951926  .00000593  00000-0  75804-4 0  9992
2  1672  32.3657 228.7858 0071656 207.5317 152.1530 14.75767468852618
0 TITAN 3C TRANSTAGE DEB
1  1680U 65082AT  20196.52476506 +.00000062 +00000-0 +49107-5 0  9993
2  1680 032.2576 025.0873 0021426 162.0574 198.0834 14.63569543896313
0 TITAN 3C TRANSTAGE DEB
1  1682U 65082AV  20196.52972323 +.00000126 +00000-0 +16930-4 0  9991
2  1682 032.4091 272.5829 0056541 045.3604 315.1639 14.64658230872347
0 TITAN 3C TRANSTAGE DEB
1  1684U 65082AX  20196.26253990 +.00000206 +00000-0 +51517-4 0  9995
2  1684 032.2135 184.2775 0187037 131.6428 230.0391 14.32396639831446
0 TITAN 3C TRANSTAGE DEB
1  1716U 65082BX  20196.50190531 +.00000083 +00000-0 +11103-4 0  9999
2  1716 032.1920 355.2750 0039780 125.6182 234.8176 14.54171232893059
0 TITAN 3C TRANSTAGE DEB
1  1722U 65082CD  20196.42767229 +.00000071 +00000-0 +79221-5 0  9994
2  1722 032.4196 094.2667 0029570 259.8381 099.8933 14.60108398882359
0 EXPLORER 29 (GEOS 1)
1  1726U 65089A   20196.35652914 -.00000057  00000-0  96821-4 0  9990
2  1726  59.3813 213.0655 0711458 245.9913 118.7206 11.97049361390972
0 DELTA 1 R/B
1  1729U 65089B   20196.43645090 -.00000052 +00000-0 +13119-3 0  9992
2  1729 059.3903 199.6779 0711138 217.8402 299.5081 11.97512759391265
0 EXPLORER 30
1  1738U 65093A   20196.52552578 -.00000123 +00000-0 +91660-5 0  9993
2  1738 059.7094 033.7955 0127427 213.6411 145.6490 14.40223750844663
0 SCOUT X-4 R/B
1  1739U 65093B   20196.30072137 -.00000075  00000-0  21169-4 0  9990
2  1739  59.7041 148.1606 0091571  46.7209 314.1427 14.51501244876678
0 A-1 (ASTERIX)
1  1778U 65096A   20196.49598385 -.00000012 +00000-0 +35534-5 0  9997
2  1778 034.2533 235.2980 0751023 072.6672 295.4677 13.46948769672701
0 ALOUETTE 2
1  1804U 65098A   20196.58614855 +.00000073 +00000-0 +26294-4 0  9998
2  1804 079.8052 311.8307 1342342 286.7977 059.0339 12.25423677414012
0 DIAMANT R/B
1  1805U 65096B   20196.45376161  .00000021  00000-0  45941-5 0  9992
2  1805  34.2469 229.8086 0618530 171.6133 189.5429 13.79116699704746
0 EXPLORER 31 (ISIS-X)
1  1806U 65098B   20196.32366823 +.00000397 +00000-0 +13183-3 0  9992
2  1806 079.8052 326.1195 1437256 046.1762 324.9447 12.05597406387728
0 THOR AGENA B R/B
1  1807U 65098C   20196.39345373  .00000155  00000-0  44237-4 0  9994
2  1807  79.8375  67.3981 1350181  83.0349 292.1953 12.23766650407872
0 FR 1
1  1814U 65101A   20196.48235850 +.00000061 +00000-0 +13841-4 0  9998
2  1814 075.8682 105.4871 0005128 036.9687 323.1844 14.66652415738512
0 SCOUT X-4 R/B
1  1815U 65101B   20196.17094175  .00000180  00000-0  26750-4 0  9993
2  1815  75.8443 199.0425 0005441 212.8538 147.2310 14.79209414768506
0 TITAN 3C TRANSTAGE DEB
1  1829U 65082DU  20196.55775192 +.00000122 +00000-0 +10977-4 0  9993
2  1829 032.2909 141.7555 0030352 206.1087 153.8035 14.77754136899389
0 TITAN 3C TRANSTAGE DEB
1  1833U 65082DY  20196.31577642 +.00000533 +00000-0 +10042-3 0  9990
2  1833 032.2272 061.9368 0077481 052.7326 308.0355 14.58869001852630
0 TITAN 3C TRANSTAGE DEB
1  1835U 65082EA  20196.29469162 +.00000180 +00000-0 +13216-4 0  9991
2  1835 032.3916 196.5497 0016030 265.2107 094.6721 14.92296267922748
0 TITAN 3C TRANSTAGE DEB
1  1859U 65082ES  20196.35227360 +.00000061 +00000-0 +72355-5 0  9994
2  1859 032.1275 062.4823 0069099 021.2624 339.0867 14.46489564873342
0 TITAN 3C TRANSTAGE R/B
1  1863U 65108A   20196.09343718 -.00000065  00000-0  29123-4 0  9994
2  1863  26.8494 329.2192 6089213  49.9289 349.3622  3.84519153283990
